STARLINK-5315           
1 55309U 23010AS  25312.37225588  .00000814  00000+0  75990-4 0  9997
2 55309  69.9984 310.1990 0003060 270.3901  89.6907 14.98335017155600
STARLINK-5309           
1 55310U 23010AT  25312.40982740  .00000347  00000+0  36908-4 0  9990
2 55310  69.9977 310.3280 0003012 265.9366  94.1449 14.98323251155609
STARLINK-5312           
1 55311U 23010AU  25312.41399470  .00001334  00000+0  11955-3 0  9995
2 55311  69.9977 310.3435 0003164 270.6268  89.4529 14.98338102156477
STARLINK-5296           
1 55312U 23010AV  25312.45153094  .00000272  00000+0  30602-4 0  9991
2 55312  69.9979 309.9585 0003227 274.9569  85.1222 14.98334156156480
STARLINK-5313           
1 55313U 23010AW  25312.40147718  .00000046  00000+0  11676-4 0  9992
2 55313  69.9978 310.2981 0003275 270.2053  89.8731 14.98330378156472
STARLINK-5305           
1 55314U 23010AX  25312.40564300  .00001164  00000+0  10534-3 0  9996
2 55314  69.9978 310.3110 0003164 271.1400  88.9397 14.98338688156471
STARLINK-4623           
1 55315U 23010AY  25312.48515785  .00000635  00000+0  61049-4 0  9998
2 55315  69.9991 330.0657 0003037 272.1416  87.9395 14.98323370155107
STARLINK-5257           
1 55316U 23010AZ  25312.37643193  .00000772  00000+0  72452-4 0  9994
2 55316  69.9984 310.2273 0003088 268.7576  91.3230 14.98334103156472
STARLINK-5265           
1 55317U 23010BA  25312.39732367 -.00000787  00000+0 -58190-4 0  9990
2 55317  69.9977 310.3106 0003527 267.5299  92.5456 14.98304373156477
STARLINK-5180           
1 55318U 23010BB  25312.39312836  .00000638  00000+0  61271-4 0  9993
2 55318  69.9981 310.2687 0002999 270.1850  89.8965 14.98331211156476
STARLINK-5196           
1 55319U 23010BC  25312.38895297 -.00000145  00000+0 -43416-5 0  9997
2 55319  69.9983 310.2547 0003354 268.1373  91.9402 14.98332220156478
STARLINK-5492           
1 55331U 23013A   25310.89813852  .00002790  00000+0  22156-3 0  9997
2 55331  43.0050 247.9577 0001154 274.7044  85.3667 15.02526684154319
STARLINK-5491           
1 55332U 23013B   25312.47498597  .00000895  00000+0  81343-4 0  9997
2 55332  43.0044 226.1289 0001222 261.4208  98.6496 15.02536616153629
STARLINK-5493           
1 55333U 23013C   25312.48805021 -.00000704  00000+0 -37070-4 0  9992
2 55333  43.0030 239.2440 0001144 263.5329  96.5383 15.02531850153479
STARLINK-5652           
1 55334U 23013D   25312.09139859 -.00000815  00000+0 -45290-4 0  9995
2 55334  43.0070 241.3313 0001277 269.4443  90.6253 15.02525632153412
STARLINK-5660           
1 55335U 23013E   25312.48471591 -.00004462  00000+0 -31525-3 0  9998
2 55335  43.0058 239.2217 0001137 281.8443  78.2272 15.02556805153476
STARLINK-5655           
1 55336U 23013F   25312.48496899 -.00001214  00000+0 -74827-4 0  9992
2 55336  43.0032 226.1189 0000986 270.1412  89.9317 15.02529429153628
