[{"OBJECT_NAME":"STARLINK-5315","OBJECT_ID":"2023-010AS","EPOCH":"2025-11-08T08:56:02.908032","MEAN_MOTION":14.98335017,"ECCENTRICITY":0.000306,"INCLINATION":69.9984,"RA_OF_ASC_NODE":310.199,"ARG_OF_PERICENTER":270.3901,"MEAN_ANOMALY":89.6907,"EPHEMERIS_TYPE":0,"CLASSIFICATION_TYPE":"U","NORAD_CAT_ID":55309,"ELEMENT_SET_NO":999,"REV_AT_EPOCH":15560,"BSTAR":7.599e-5,"MEAN_MOTION_DOT":8.14e-6,"MEAN_MOTION_DDOT":0},{"OBJECT_NAME":"STARLINK-5309","OBJECT_ID":"2023-010AT","EPOCH":"2025-11-08T09:50:09.087360","MEAN_MOTION":14.98323251,"ECCENTRICITY":0.0003012,"INCLINATION":69.9977,"RA_OF_ASC_NODE":310.328,"ARG_OF_PERICENTER":265.9366,"MEAN_ANOMALY":94.1449,"EPHEMERIS_TYPE":0,"CLASSIFICATION_TYPE":"U","NORAD_CAT_ID":55310,"ELEMENT_SET_NO":999,"REV_AT_EPOCH":15560,"BSTAR":3.6908e-5,"MEAN_MOTION_DOT":3.47e-6,"MEAN_MOTION_DDOT":0},{"OBJECT_NAME":"STARLINK-5312","OBJECT_ID":"2023-010AU","EPOCH":"2025-11-08T09:56:09.142080","MEAN_MOTION":14.98338102,"ECCENTRICITY":0.0003164,"INCLINATION":69.9977,"RA_OF_ASC_NODE":310.3435,"ARG_OF_PERICENTER":270.6268,"MEAN_ANOMALY":89.4529,"EPHEMERIS_TYPE":0,"CLASSIFICATION_TYPE":"U","NORAD_CAT_ID":55311,"ELEMENT_SET_NO":999,"REV_AT_EPOCH":15647,"BSTAR":0.00011955,"MEAN_MOTION_DOT":1.334e-5,"MEAN_MOTION_DDOT":0},{"OBJECT_NAME":"STARLINK-5296","OBJECT_ID":"2023-010AV","EPOCH":"2025-11-08T10:50:12.273216","MEAN_MOTION":14.98334156,"ECCENTRICITY":0.0003227,"INCLINATION":69.9979,"RA_OF_ASC_NODE":309.9585,"ARG_OF_PERICENTER":274.9569,"MEAN_ANOMALY":85.1222,"EPHEMERIS_TYPE":0,"CLASSIFICATION_TYPE":"U","NORAD_CAT_ID":55312,"ELEMENT_SET_NO":999,"REV_AT_EPOCH":15648,"BSTAR":3.0602e-5,"MEAN_MOTION_DOT":2.72e-6,"MEAN_MOTION_DDOT":0},{"OBJECT_NAME":"STARLINK-5313","OBJECT_ID":"2023-010AW","EPOCH":"2025-11-08T09:38:07.628352","MEAN_MOTION":14.98330378,"ECCENTRICITY":0.0003275,"INCLINATION":69.9978,"RA_OF_ASC_NODE":310.2981,"ARG_OF_PERICENTER":270.2053,"MEAN_ANOMALY":89.8731,"EPHEMERIS_TYPE":0,"CLASSIFICATION_TYPE":"U","NORAD_CAT_ID":55313,"ELEMENT_SET_NO":999,"REV_AT_EPOCH":15647,"BSTAR":1.1676e-5,"MEAN_MOTION_DOT":4.6e-7,"MEAN_MOTION_DDOT":0},{"OBJECT_NAME":"STARLINK-5305","OBJECT_ID":"2023-010AX","EPOCH":"2025-11-08T09:44:07.555200","MEAN_MOTION":14.98338688,"ECCENTRICITY":0.0003164,"INCLINATION":69.9978,"RA_OF_ASC_NODE":310.311,"ARG_OF_PERICENTER":271.14,"MEAN_ANOMALY":88.9397,"EPHEMERIS_TYPE":0,"CLASSIFICATION_TYPE":"U","NORAD_CAT_ID":55314,"ELEMENT_SET_NO":999,"REV_AT_EPOCH":15647,"BSTAR":0.00010534,"MEAN_MOTION_DOT":1.164e-5,"MEAN_MOTION_DDOT":0},{"OBJECT_NAME":"STARLINK-4623","OBJECT_ID":"2023-010AY","EPOCH":"2025-11-08T11:38:37.638240","MEAN_MOTION":14.9832337,"ECCENTRICITY":0.0003037,"INCLINATION":69.9991,"RA_OF_ASC_NODE":330.0657,"ARG_OF_PERICENTER":272.1416,"MEAN_ANOMALY":87.9395,"EPHEMERIS_TYPE":0,"CLASSIFICATION_TYPE":"U","NORAD_CAT_ID":55315,"ELEMENT_SET_NO":999,"REV_AT_EPOCH":15510,"BSTAR":6.1049e-5,"MEAN_MOTION_DOT":6.35e-6,"MEAN_MOTION_DDOT":0},{"OBJECT_NAME":"STARLINK-5257","OBJECT_ID":"2023-010AZ","EPOCH":"2025-11-08T09:02:03.718752","MEAN_MOTION":14.98334103,"ECCENTRICITY":0.0003088,"INCLINATION":69.9984,"RA_OF_ASC_NODE":310.2273,"ARG_OF_PERICENTER":268.7576,"MEAN_ANOMALY":91.323,"EPHEMERIS_TYPE":0,"CLASSIFICATION_TYPE":"U","NORAD_CAT_ID":55316,"ELEMENT_SET_NO":999,"REV_AT_EPOCH":15647,"BSTAR":7.2452e-5,"MEAN_MOTION_DOT":7.72e-6,"MEAN_MOTION_DDOT":0},{"OBJECT_NAME":"STARLINK-5265","OBJECT_ID":"2023-010BA","EPOCH":"2025-11-08T09:32:08.765088","MEAN_MOTION":14.98304373,"ECCENTRICITY":0.0003527,"INCLINATION":69.9977,"RA_OF_ASC_NODE":310.3106,"ARG_OF_PERICENTER":267.5299,"MEAN_ANOMALY":92.5456,"EPHEMERIS_TYPE":0,"CLASSIFICATION_TYPE":"U","NORAD_CAT_ID":55317,"ELEMENT_SET_NO":999,"REV_AT_EPOCH":15647,"BSTAR":-5.819e-5,"MEAN_MOTION_DOT":-7.87e-6,"MEAN_MOTION_DDOT":0},{"OBJECT_NAME":"STARLINK-5180","OBJECT_ID":"2023-010BB","EPOCH":"2025-11-08T09:26:06.290304","MEAN_MOTION":14.98331211,"ECCENTRICITY":0.0002999,"INCLINATION":69.9981,"RA_OF_ASC_NODE":310.2687,"ARG_OF_PERICENTER":270.185,"MEAN_ANOMALY":89.8965,"EPHEMERIS_TYPE":0,"CLASSIFICATION_TYPE":"U","NORAD_CAT_ID":55318,"ELEMENT_SET_NO":999,"REV_AT_EPOCH":15647,"BSTAR":6.1271e-5,"MEAN_MOTION_DOT":6.38e-6,"MEAN_MOTION_DDOT":0},{"OBJECT_NAME":"STARLINK-5196","OBJECT_ID":"2023-010BC","EPOCH":"2025-11-08T09:20:05.536608","MEAN_MOTION":14.9833222,"ECCENTRICITY":0.0003354,"INCLINATION":69.9983,"RA_OF_ASC_NODE":310.2547,"ARG_OF_PERICENTER":268.1373,"MEAN_ANOMALY":91.9402,"EPHEMERIS_TYPE":0,"CLASSIFICATION_TYPE":"U","NORAD_CAT_ID":55319,"ELEMENT_SET_NO":999,"REV_AT_EPOCH":15647,"BSTAR":-4.3416e-6,"MEAN_MOTION_DOT":-1.45e-6,"MEAN_MOTION_DDOT":0},{"OBJECT_NAME":"STARLINK-5492","OBJECT_ID":"2023-013A","EPOCH":"2025-11-06T21:33:19.168128","MEAN_MOTION":15.02526684,"ECCENTRICITY":0.0001154,"INCLINATION":43.005,"RA_OF_ASC_NODE":247.9577,"ARG_OF_PERICENTER":274.7044,"MEAN_ANOMALY":85.3667,"EPHEMERIS_TYPE":0,"CLASSIFICATION_TYPE":"U","NORAD_CAT_ID":55331,"ELEMENT_SET_NO":999,"REV_AT_EPOCH":15431,"BSTAR":0.00022156,"MEAN_MOTION_DOT":2.79e-5,"MEAN_MOTION_DDOT":0},{"OBJECT_NAME":"STARLINK-5491","OBJECT_ID":"2023-013B","EPOCH":"2025-11-08T11:23:58.787808","MEAN_MOTION":15.02536616,"ECCENTRICITY":0.0001222,"INCLINATION":43.0044,"RA_OF_ASC_NODE":226.1289,"ARG_OF_PERICENTER":261.4208,"MEAN_ANOMALY":98.6496,"EPHEMERIS_TYPE":0,"CLASSIFICATION_TYPE":"U","NORAD_CAT_ID":55332,"ELEMENT_SET_NO":999,"REV_AT_EPOCH":15362,"BSTAR":8.1343e-5,"MEAN_MOTION_DOT":8.95e-6,"MEAN_MOTION_DDOT":0},{"OBJECT_NAME":"STARLINK-5493","OBJECT_ID":"2023-013C","EPOCH":"2025-11-08T11:42:47.538144","MEAN_MOTION":15.0253185,"ECCENTRICITY":0.0001144,"INCLINATION":43.003,"RA_OF_ASC_NODE":239.244,"ARG_OF_PERICENTER":263.5329,"MEAN_ANOMALY":96.5383,"EPHEMERIS_TYPE":0,"CLASSIFICATION_TYPE":"U","NORAD_CAT_ID":55333,"ELEMENT_SET_NO":999,"REV_AT_EPOCH":15347,"BSTAR":-3.707e-5,"MEAN_MOTION_DOT":-7.04e-6,"MEAN_MOTION_DDOT":0},{"OBJECT_NAME":"STARLINK-5652","OBJECT_ID":"2023-013D","EPOCH":"2025-11-08T02:11:36.838176","MEAN_MOTION":15.02525632,"ECCENTRICITY":0.0001277,"INCLINATION":43.007,"RA_OF_ASC_NODE":241.3313,"ARG_OF_PERICENTER":269.4443,"MEAN_ANOMALY":90.6253,"EPHEMERIS_TYPE":0,"CLASSIFICATION_TYPE":"U","NORAD_CAT_ID":55334,"ELEMENT_SET_NO":999,"REV_AT_EPOCH":15341,"BSTAR":-4.5289734e-5,"MEAN_MOTION_DOT":-8.15e-6,"MEAN_MOTION_DDOT":0},{"OBJECT_NAME":"STARLINK-5660","OBJECT_ID":"2023-013E","EPOCH":"2025-11-08T11:37:59.454624","MEAN_MOTION":15.02556805,"ECCENTRICITY":0.0001137,"INCLINATION":43.0058,"RA_OF_ASC_NODE":239.2217,"ARG_OF_PERICENTER":281.8443,"MEAN_ANOMALY":78.2272,"EPHEMERIS_TYPE":0,"CLASSIFICATION_TYPE":"U","NORAD_CAT_ID":55335,"ELEMENT_SET_NO":999,"REV_AT_EPOCH":15347,"BSTAR":-0.00031525,"MEAN_MOTION_DOT":-4.462e-5,"MEAN_MOTION_DDOT":0},{"OBJECT_NAME":"STARLINK-5655","OBJECT_ID":"2023-013F","EPOCH":"2025-11-08T11:38:21.320736","MEAN_MOTION":15.02529429,"ECCENTRICITY":9.86e-5,"INCLINATION":43.0032,"RA_OF_ASC_NODE":226.1189,"ARG_OF_PERICENTER":270.1412,"MEAN_ANOMALY":89.9317,"EPHEMERIS_TYPE":0,"CLASSIFICATION_TYPE":"U","NORAD_CAT_ID":55336,"ELEMENT_SET_NO":999,"REV_AT_EPOCH":15362,"BSTAR":-7.4827e-5,"MEAN_MOTION_DOT":-1.214e-5,"MEAN_MOTION_DDOT":0}]
